[Satellite]
VERSION=1.1
NAME=IRIDIUM 86 [+]
NICKNAME=IRIDIUM 86 [+]
TLE1=1 25528U 98066B   17186.11346043  .00000006  00000-0 -48486-5 0  9998
TLE2=2 25528  86.3949 342.2999 0001985  85.1500 274.9922 14.34213894981690
